{
  "type": "FeatureCollection",
  "features": [
    {
      "type": "Feature",
      "properties": {
        "norad_id": 67040,
        "name": "STARLINK-35786",
        "group": "last-30-days",
        "lat": -40.80073355350256,
        "lon": -19.78722192325266,
        "alt_km": 385.2260806401191,
        "timestamp": "2025-12-27T11:23:18.581880+00:00",
        "meta_object_name": "STARLINK-35786",
        "meta_object_id": "2025-294L",
        "meta_epoch": "2025-12-27T04:00:01.998720",
        "meta_mean_motion": 15.62917344,
        "meta_eccentricity": 0.0001597,
        "meta_inclination": 42.9992,
        "meta_ra_of_asc_node": 94.1709,
        "meta_arg_of_pericenter": 271.666,
        "meta_mean_anomaly": 48.3715,
        "meta_ephemeris_type": 0,
        "meta_classification_type": "U",
        "meta_norad_cat_id": 67040,
        "meta_element_set_no": 999,
        "meta_rev_at_epoch": 242,
        "meta_bstar": -0.023404,
        "meta_mean_motion_dot": -0.01923638,
        "meta_mean_motion_ddot": 0,
        "tle_line1": "1 67040U 25294L   25361.16668980 -.01923638  00000+0 -23404-1 0  9997",
        "tle_line2": "2 67040  42.9992  94.1709 0001597 271.6660  48.3715 15.62917344  2422"
      },
      "geometry": {
        "type": "Point",
        "coordinates": [
          -19.78722192325266,
          -40.80073355350256
        ]
      }
    },
    {
      "type": "Feature",
      "properties": {
        "norad_id": 67041,
        "name": "STARLINK-35765",
        "group": "last-30-days",
        "lat": -41.7007729681677,
        "lon": -14.693825547351581,
        "alt_km": 385.34084540526965,
        "timestamp": "2025-12-27T11:23:18.581890+00:00",
        "meta_object_name": "STARLINK-35765",
        "meta_object_id": "2025-294M",
        "meta_epoch": "2025-12-27T04:00:01.998720",
        "meta_mean_motion": 15.62898665,
        "meta_eccentricity": 0.0001468,
        "meta_inclination": 42.999,
        "meta_ra_of_asc_node": 94.1604,
        "meta_arg_of_pericenter": 269.8041,
        "meta_mean_anomaly": 54.1941,
        "meta_ephemeris_type": 0,
        "meta_classification_type": "U",
        "meta_norad_cat_id": 67041,
        "meta_element_set_no": 999,
        "meta_rev_at_epoch": 242,
        "meta_bstar": -0.023278,
        "meta_mean_motion_dot": -0.01913146,
        "meta_mean_motion_ddot": 0,
        "tle_line1": "1 67041U 25294M   25361.16668980 -.01913146  00000+0 -23278-1 0  9990",
        "tle_line2": "2 67041  42.9990  94.1604 0001468 269.8041  54.1941 15.62898665  2424"
      },
      "geometry": {
        "type": "Point",
        "coordinates": [
          -14.693825547351581,
          -41.7007729681677
        ]
      }
    },
    {
      "type": "Feature",
      "properties": {
        "norad_id": 67042,
        "name": "STARLINK-35773",
        "group": "last-30-days",
        "lat": -42.0731428188896,
        "lon": -12.032043426965066,
        "alt_km": 385.38044308507324,
        "timestamp": "2025-12-27T11:23:18.581899+00:00",
        "meta_object_name": "STARLINK-35773",
        "meta_object_id": "2025-294N",
        "meta_epoch": "2025-12-27T04:00:01.998720",
        "meta_mean_motion": 15.62892788,
        "meta_eccentricity": 0.0001458,
        "meta_inclination": 42.999,
        "meta_ra_of_asc_node": 94.1553,
        "meta_arg_of_pericenter": 269.0734,
        "meta_mean_anomaly": 56.9563,
        "meta_ephemeris_type": 0,
        "meta_classification_type": "U",
        "meta_norad_cat_id": 67042,
        "meta_element_set_no": 999,
        "meta_rev_at_epoch": 262,
        "meta_bstar": -0.023376,
        "meta_mean_motion_dot": -0.01919866,
        "meta_mean_motion_ddot": 0,
        "tle_line1": "1 67042U 25294N   25361.16668980 -.01919866  00000+0 -23376-1 0  9995",
        "tle_line2": "2 67042  42.9990  94.1553 0001458 269.0734  56.9563 15.62892788  2620"
      },
      "geometry": {
        "type": "Point",
        "coordinates": [
          -12.032043426965066,
          -42.0731428188896
        ]
      }
    },
    {
      "type": "Feature",
      "properties": {
        "norad_id": 67043,
        "name": "STARLINK-35901",
        "group": "last-30-days",
        "lat": -42.38164445492867,
        "lon": -9.355247859412028,
        "alt_km": 385.36779661575474,
        "timestamp": "2025-12-27T11:23:18.581909+00:00",
        "meta_object_name": "STARLINK-35901",
        "meta_object_id": "2025-294P",
        "meta_epoch": "2025-12-27T04:00:01.998720",
        "meta_mean_motion": 15.6287821,
        "meta_eccentricity": 0.0001543,
        "meta_inclination": 42.999,
        "meta_ra_of_asc_node": 94.1504,
        "meta_arg_of_pericenter": 271.1854,
        "meta_mean_anomaly": 56.8712,
        "meta_ephemeris_type": 0,
        "meta_classification_type": "U",
        "meta_norad_cat_id": 67043,
        "meta_element_set_no": 999,
        "meta_rev_at_epoch": 262,
        "meta_bstar": -0.023315,
        "meta_mean_motion_dot": -0.01914564,
        "meta_mean_motion_ddot": 0,
        "tle_line1": "1 67043U 25294P   25361.16668980 -.01914564  00000+0 -23315-1 0  9999",
        "tle_line2": "2 67043  42.9990  94.1504 0001543 271.1854  56.8712 15.62878210  2628"
      },
      "geometry": {
        "type": "Point",
        "coordinates": [
          -9.355247859412028,
          -42.38164445492867
        ]
      }
    },
    {
      "type": "Feature",
      "properties": {
        "norad_id": 67044,
        "name": "STARLINK-35884",
        "group": "last-30-days",
        "lat": -42.625457951311006,
        "lon": -6.679188536281574,
        "alt_km": 385.3940594455944,
        "timestamp": "2025-12-27T11:23:18.581921+00:00",
        "meta_object_name": "STARLINK-35884",
        "meta_object_id": "2025-294Q",
        "meta_epoch": "2025-12-27T04:00:01.998720",
        "meta_mean_motion": 15.6287146,
        "meta_eccentricity": 0.0001529,
        "meta_inclination": 42.9993,
        "meta_ra_of_asc_node": 94.1454,
        "meta_arg_of_pericenter": 269.7989,
        "meta_mean_anomaly": 60.2589,
        "meta_ephemeris_type": 0,
        "meta_classification_type": "U",
        "meta_norad_cat_id": 67044,
        "meta_element_set_no": 999,
        "meta_rev_at_epoch": 262,
        "meta_bstar": -0.023331,
        "meta_mean_motion_dot": -0.01915256,
        "meta_mean_motion_ddot": 0,
        "tle_line1": "1 67044U 25294Q   25361.16668980 -.01915256  00000+0 -23331-1 0  9997",
        "tle_line2": "2 67044  42.9993  94.1454 0001529 269.7989  60.2589 15.62871460  2623"
      },
      "geometry": {
        "type": "Point",
        "coordinates": [
          -6.679188536281574,
          -42.625457951311006
        ]
      }
    },
    {
      "type": "Feature",
      "properties": {
        "norad_id": 67045,
        "name": "STARLINK-35891",
        "group": "last-30-days",
        "lat": -42.81522873455285,
        "lon": -3.8153458135423266,
        "alt_km": 385.44288864782175,
        "timestamp": "2025-12-27T11:23:18.581933+00:00",
        "meta_object_name": "STARLINK-35891",
        "meta_object_id": "2025-294R",
        "meta_epoch": "2025-12-27T04:00:01.998720",
        "meta_mean_motion": 15.62853619,
        "meta_eccentricity": 0.0001552,
        "meta_inclination": 42.9993,
        "meta_ra_of_asc_node": 94.1399,
        "meta_arg_of_pericenter": 270.8722,
        "meta_mean_anomaly": 61.3266,
        "meta_ephemeris_type": 0,
        "meta_classification_type": "U",
        "meta_norad_cat_id": 67045,
        "meta_element_set_no": 999,
        "meta_rev_at_epoch": 253,
        "meta_bstar": -0.023401,
        "meta_mean_motion_dot": -0.01919093,
        "meta_mean_motion_ddot": 0,
        "tle_line1": "1 67045U 25294R   25361.16668980 -.01919093  00000+0 -23401-1 0  9999",
        "tle_line2": "2 67045  42.9993  94.1399 0001552 270.8722  61.3266 15.62853619  2536"
      },
      "geometry": {
        "type": "Point",
        "coordinates": [
          -3.8153458135423266,
          -42.81522873455285
        ]
      }
    },
    {
      "type": "Feature",
      "properties": {
        "norad_id": 67046,
        "name": "STARLINK-35721",
        "group": "last-30-days",
        "lat": -42.93027963870898,
        "lon": -1.0344474144721885,
        "alt_km": 385.49291376522433,
        "timestamp": "2025-12-27T11:23:18.581943+00:00",
        "meta_object_name": "STARLINK-35721",
        "meta_object_id": "2025-294S",
        "meta_epoch": "2025-12-27T04:00:01.998720",
        "meta_mean_motion": 15.62840406,
        "meta_eccentricity": 0.0001549,
        "meta_inclination": 42.9994,
        "meta_ra_of_asc_node": 94.1349,
        "meta_arg_of_pericenter": 271.305,
        "meta_mean_anomaly": 62.9579,
        "meta_ephemeris_type": 0,
        "meta_classification_type": "U",
        "meta_norad_cat_id": 67046,
        "meta_element_set_no": 999,
        "meta_rev_at_epoch": 262,
        "meta_bstar": -0.023474,
        "meta_mean_motion_dot": -0.01923489,
        "meta_mean_motion_ddot": 0,
        "tle_line1": "1 67046U 25294S   25361.16668980 -.01923489  00000+0 -23474-1 0  9994",
        "tle_line2": "2 67046  42.9994  94.1349 0001549 271.3050  62.9579 15.62840406  2623"
      },
      "geometry": {
        "type": "Point",
        "coordinates": [
          -1.0344474144721885,
          -42.93027963870898
        ]
      }
    }
  ]
}